{
  "type": "FeatureCollection",
  "features": [
    {
      "type": "Feature",
      "properties": {
        "norad_id": 30827,
        "name": "FENGYUN 1C DEB",
        "group": "fengyun-1c-debris",
        "lat": -52.79676007443934,
        "lon": 140.53482627047467,
        "alt_km": 755.2717776719264,
        "timestamp": "2025-12-13T03:42:11.551769+00:00",
        "meta_object_name": "FENGYUN 1C DEB",
        "meta_object_id": "1999-025AVM",
        "meta_epoch": "2025-12-11T05:31:34.049280",
        "meta_mean_motion": 14.37749293,
        "meta_eccentricity": 0.00435959,
        "meta_inclination": 99.0037,
        "meta_ra_of_asc_node": 330.5761,
        "meta_arg_of_pericenter": 183.204,
        "meta_mean_anomaly": 176.8873,
        "meta_ephemeris_type": 0,
        "meta_classification_type": "U",
        "meta_norad_cat_id": 30827,
        "meta_element_set_no": 999,
        "meta_rev_at_epoch": 96527,
        "meta_bstar": 0.0040350501,
        "meta_mean_motion_dot": 0.00012251,
        "meta_mean_motion_ddot": 0,
        "tle_line1": "1 30827U 99025AVM 25345.23025520  .00012251  00000+0  40351-2 0  9998",
        "tle_line2": "2 30827  99.0037 330.5761 0043595 183.2040 176.8873 14.37749293965277"
      },
      "geometry": {
        "type": "Point",
        "coordinates": [
          140.53482627047467,
          -52.79676007443934
        ]
      }
    },
    {
      "type": "Feature",
      "properties": {
        "norad_id": 30828,
        "name": "FENGYUN 1C DEB",
        "group": "fengyun-1c-debris",
        "lat": -46.22750150226516,
        "lon": 102.982421547872,
        "alt_km": 749.1486306294482,
        "timestamp": "2025-12-13T03:42:11.551779+00:00",
        "meta_object_name": "FENGYUN 1C DEB",
        "meta_object_id": "1999-025AVN",
        "meta_epoch": "2025-12-11T13:12:13.356576",
        "meta_mean_motion": 14.76929386,
        "meta_eccentricity": 0.02092134,
        "meta_inclination": 98.3749,
        "meta_ra_of_asc_node": 92.4714,
        "meta_arg_of_pericenter": 182.5483,
        "meta_mean_anomaly": 244.685,
        "meta_ephemeris_type": 0,
        "meta_classification_type": "U",
        "meta_norad_cat_id": 30828,
        "meta_element_set_no": 999,
        "meta_rev_at_epoch": 98639,
        "meta_bstar": 0.0026666063,
        "meta_mean_motion_dot": 0.00027011,
        "meta_mean_motion_ddot": 0,
        "tle_line1": "1 30828U 99025AVN 25345.55015459  .00027011  00000+0  26666-2 0  9997",
        "tle_line2": "2 30828  98.3749  92.4714 0209213 182.5483 244.6850 14.76929386986397"
      },
      "geometry": {
        "type": "Point",
        "coordinates": [
          102.982421547872,
          -46.22750150226516
        ]
      }
    },
    {
      "type": "Feature",
      "properties": {
        "norad_id": 30829,
        "name": "FENGYUN 1C DEB",
        "group": "fengyun-1c-debris",
        "lat": -69.90253807254238,
        "lon": 134.81727011734708,
        "alt_km": 867.4226519222848,
        "timestamp": "2025-12-13T03:42:11.551789+00:00",
        "meta_object_name": "FENGYUN 1C DEB",
        "meta_object_id": "1999-025AVP",
        "meta_epoch": "2025-12-09T09:51:51.342624",
        "meta_mean_motion": 14.08646778,
        "meta_eccentricity": 0.00356313,
        "meta_inclination": 98.7767,
        "meta_ra_of_asc_node": 336.1491,
        "meta_arg_of_pericenter": 344.1121,
        "meta_mean_anomaly": 15.8928,
        "meta_ephemeris_type": 0,
        "meta_classification_type": "U",
        "meta_norad_cat_id": 30829,
        "meta_element_set_no": 999,
        "meta_rev_at_epoch": 96386,
        "meta_bstar": 0.00080547059,
        "meta_mean_motion_dot": 1.351e-05,
        "meta_mean_motion_ddot": 0,
        "tle_line1": "1 30829U 99025AVP 25343.41101091  .00001351  00000+0  80547-3 0  9997",
        "tle_line2": "2 30829  98.7767 336.1491 0035631 344.1121  15.8928 14.08646778963865"
      },
      "geometry": {
        "type": "Point",
        "coordinates": [
          134.81727011734708,
          -69.90253807254238
        ]
      }
    },
    {
      "type": "Feature",
      "properties": {
        "norad_id": 30830,
        "name": "FENGYUN 1C DEB",
        "group": "fengyun-1c-debris",
        "lat": 67.84509627358071,
        "lon": 177.7128789308895,
        "alt_km": 840.1500309118246,
        "timestamp": "2025-12-13T03:42:11.551799+00:00",
        "meta_object_name": "FENGYUN 1C DEB",
        "meta_object_id": "1999-025AVQ",
        "meta_epoch": "2025-12-11T11:08:37.110624",
        "meta_mean_motion": 14.12227812,
        "meta_eccentricity": 0.00306418,
        "meta_inclination": 98.7293,
        "meta_ra_of_asc_node": 333.8985,
        "meta_arg_of_pericenter": 192.4253,
        "meta_mean_anomaly": 331.2136,
        "meta_ephemeris_type": 0,
        "meta_classification_type": "U",
        "meta_norad_cat_id": 30830,
        "meta_element_set_no": 999,
        "meta_rev_at_epoch": 96581,
        "meta_bstar": 0.00040790076,
        "meta_mean_motion_dot": 7.1e-06,
        "meta_mean_motion_ddot": 0,
        "tle_line1": "1 30830U 99025AVQ 25345.46431841  .00000710  00000+0  40790-3 0  9999",
        "tle_line2": "2 30830  98.7293 333.8985 0030641 192.4253 331.2136 14.12227812965811"
      },
      "geometry": {
        "type": "Point",
        "coordinates": [
          177.7128789308895,
          67.84509627358071
        ]
      }
    },
    {
      "type": "Feature",
      "properties": {
        "norad_id": 30831,
        "name": "FENGYUN 1C DEB",
        "group": "fengyun-1c-debris",
        "lat": -18.6217710586224,
        "lon": 143.1215702234173,
        "alt_km": 768.2749430272152,
        "timestamp": "2025-12-13T03:42:11.551809+00:00",
        "meta_object_name": "FENGYUN 1C DEB",
        "meta_object_id": "1999-025AVR",
        "meta_epoch": "2025-12-12T04:17:55.856544",
        "meta_mean_motion": 14.31085492,
        "meta_eccentricity": 0.00555471,
        "meta_inclination": 99.3281,
        "meta_ra_of_asc_node": 138.9006,
        "meta_arg_of_pericenter": 35.752,
        "meta_mean_anomaly": 324.736,
        "meta_ephemeris_type": 0,
        "meta_classification_type": "U",
        "meta_norad_cat_id": 30831,
        "meta_element_set_no": 999,
        "meta_rev_at_epoch": 65242,
        "meta_bstar": 0.00062220659,
        "meta_mean_motion_dot": 1.618e-05,
        "meta_mean_motion_ddot": 0,
        "tle_line1": "1 30831U 99025AVR 25346.17911871  .00001618  00000+0  62221-3 0  9996",
        "tle_line2": "2 30831  99.3281 138.9006 0055547  35.7520 324.7360 14.31085492652425"
      },
      "geometry": {
        "type": "Point",
        "coordinates": [
          143.1215702234173,
          -18.6217710586224
        ]
      }
    },
    {
      "type": "Feature",
      "properties": {
        "norad_id": 30833,
        "name": "FENGYUN 1C DEB",
        "group": "fengyun-1c-debris",
        "lat": -5.287239914173794,
        "lon": 134.2037998792494,
        "alt_km": 829.6640567802242,
        "timestamp": "2025-12-13T03:42:11.551819+00:00",
        "meta_object_name": "FENGYUN 1C DEB",
        "meta_object_id": "1999-025AVT",
        "meta_epoch": "2025-12-08T16:00:43.322112",
        "meta_mean_motion": 14.26739556,
        "meta_eccentricity": 0.0032912,
        "meta_inclination": 99.8427,
        "meta_ra_of_asc_node": 128.243,
        "meta_arg_of_pericenter": 192.2268,
        "meta_mean_anomaly": 167.8112,
        "meta_ephemeris_type": 0,
        "meta_classification_type": "U",
        "meta_norad_cat_id": 30833,
        "meta_element_set_no": 999,
        "meta_rev_at_epoch": 64353,
        "meta_bstar": 0.001124,
        "meta_mean_motion_dot": 2.683e-05,
        "meta_mean_motion_ddot": 0,
        "tle_line1": "1 30833U 99025AVT 25342.66716808  .00002683  00000+0  11240-2 0  9998",
        "tle_line2": "2 30833  99.8427 128.2430 0032912 192.2268 167.8112 14.26739556643530"
      },
      "geometry": {
        "type": "Point",
        "coordinates": [
          134.2037998792494,
          -5.287239914173794
        ]
      }
    },
    {
      "type": "Feature",
      "properties": {
        "norad_id": 30836,
        "name": "FENGYUN 1C DEB",
        "group": "fengyun-1c-debris",
        "lat": 56.47816221250795,
        "lon": -146.7571277238392,
        "alt_km": 856.8613062356526,
        "timestamp": "2025-12-13T03:42:11.551829+00:00",
        "meta_object_name": "FENGYUN 1C DEB",
        "meta_object_id": "1999-025AVW",
        "meta_epoch": "2025-12-11T22:12:36.706176",
        "meta_mean_motion": 14.11932534,
        "meta_eccentricity": 0.0025667,
        "meta_inclination": 98.7452,
        "meta_ra_of_asc_node": 18.6084,
        "meta_arg_of_pericenter": 247.0084,
        "meta_mean_anomaly": 112.838,
        "meta_ephemeris_type": 0,
        "meta_classification_type": "U",
        "meta_norad_cat_id": 30836,
        "meta_element_set_no": 999,
        "meta_rev_at_epoch": 61992,
        "meta_bstar": 0.00050218,
        "meta_mean_motion_dot": 8.78e-06,
        "meta_mean_motion_ddot": 0,
        "tle_line1": "1 30836U 99025AVW 25345.92542484  .00000878  00000+0  50218-3 0  9993",
        "tle_line2": "2 30836  98.7452  18.6084 0025667 247.0084 112.8380 14.11932534619928"
      },
      "geometry": {
        "type": "Point",
        "coordinates": [
          -146.7571277238392,
          56.47816221250795
        ]
      }
    }
  ]
}